{
  "type": "FeatureCollection",
  "features": [
    {
      "type": "Feature",
      "properties": {
        "norad_id": 30691,
        "name": "FENGYUN 1C DEB",
        "group": "fengyun-1c-debris",
        "lat": 33.81150514721025,
        "lon": -175.46728020329817,
        "alt_km": 920.0951726294788,
        "timestamp": "2025-12-13T05:42:57.837439+00:00",
        "meta_object_name": "FENGYUN 1C DEB",
        "meta_object_id": "1999-025AQZ",
        "meta_epoch": "2025-12-11T23:57:45.001728",
        "meta_mean_motion": 13.89430669,
        "meta_eccentricity": 0.0139307,
        "meta_inclination": 98.7437,
        "meta_ra_of_asc_node": 357.4522,
        "meta_arg_of_pericenter": 235.1612,
        "meta_mean_anomaly": 194.378,
        "meta_ephemeris_type": 0,
        "meta_classification_type": "U",
        "meta_norad_cat_id": 30691,
        "meta_element_set_no": 999,
        "meta_rev_at_epoch": 95106,
        "meta_bstar": 0.0016248,
        "meta_mean_motion_dot": 2.103e-05,
        "meta_mean_motion_ddot": 0,
        "tle_line1": "1 30691U 99025AQZ 25345.99843752  .00002103  00000+0  16248-2 0  9998",
        "tle_line2": "2 30691  98.7437 357.4522 0139307 235.1612 194.3780 13.89430669951062"
      },
      "geometry": {
        "type": "Point",
        "coordinates": [
          -175.46728020329817,
          33.81150514721025
        ]
      }
    },
    {
      "type": "Feature",
      "properties": {
        "norad_id": 30693,
        "name": "FENGYUN 1C DEB",
        "group": "fengyun-1c-debris",
        "lat": -54.1528379550787,
        "lon": -15.43303123050107,
        "alt_km": 871.0392415419292,
        "timestamp": "2025-12-13T05:42:57.837451+00:00",
        "meta_object_name": "FENGYUN 1C DEB",
        "meta_object_id": "1999-025ARB",
        "meta_epoch": "2025-12-11T21:41:39.386976",
        "meta_mean_motion": 14.13285167,
        "meta_eccentricity": 0.0029239,
        "meta_inclination": 98.6862,
        "meta_ra_of_asc_node": 331.0561,
        "meta_arg_of_pericenter": 169.7908,
        "meta_mean_anomaly": 190.3864,
        "meta_ephemeris_type": 0,
        "meta_classification_type": "U",
        "meta_norad_cat_id": 30693,
        "meta_element_set_no": 999,
        "meta_rev_at_epoch": 96923,
        "meta_bstar": 0.00047094,
        "meta_mean_motion_dot": 8.44e-06,
        "meta_mean_motion_ddot": 0,
        "tle_line1": "1 30693U 99025ARB 25345.90392809  .00000844  00000+0  47094-3 0  9997",
        "tle_line2": "2 30693  98.6862 331.0561 0029239 169.7908 190.3864 14.13285167969234"
      },
      "geometry": {
        "type": "Point",
        "coordinates": [
          -15.43303123050107,
          -54.1528379550787
        ]
      }
    },
    {
      "type": "Feature",
      "properties": {
        "norad_id": 30694,
        "name": "FENGYUN 1C DEB",
        "group": "fengyun-1c-debris",
        "lat": -29.321879952638405,
        "lon": -41.359869260219085,
        "alt_km": 541.533834050143,
        "timestamp": "2025-12-13T05:42:57.837462+00:00",
        "meta_object_name": "FENGYUN 1C DEB",
        "meta_object_id": "1999-025ARC",
        "meta_epoch": "2025-12-11T10:13:42.791808",
        "meta_mean_motion": 14.86413486,
        "meta_eccentricity": 0.01307349,
        "meta_inclination": 99.0474,
        "meta_ra_of_asc_node": 311.4447,
        "meta_arg_of_pericenter": 298.9978,
        "meta_mean_anomaly": 59.8182,
        "meta_ephemeris_type": 0,
        "meta_classification_type": "U",
        "meta_norad_cat_id": 30694,
        "meta_element_set_no": 999,
        "meta_rev_at_epoch": 76,
        "meta_bstar": 0.002921039,
        "meta_mean_motion_dot": 0.00030171,
        "meta_mean_motion_ddot": 0,
        "tle_line1": "1 30694U 99025ARC 25345.42618972  .00030171  00000+0  29210-2 0  9992",
        "tle_line2": "2 30694  99.0474 311.4447 0130734 298.9978  59.8182 14.86413486   762"
      },
      "geometry": {
        "type": "Point",
        "coordinates": [
          -41.359869260219085,
          -29.321879952638405
        ]
      }
    },
    {
      "type": "Feature",
      "properties": {
        "norad_id": 30696,
        "name": "FENGYUN 1C DEB",
        "group": "fengyun-1c-debris",
        "lat": -15.811374077174767,
        "lon": -146.14556002488945,
        "alt_km": 726.8461221245007,
        "timestamp": "2025-12-13T05:42:57.837473+00:00",
        "meta_object_name": "FENGYUN 1C DEB",
        "meta_object_id": "1999-025ARE",
        "meta_epoch": "2025-12-12T02:28:33.492288",
        "meta_mean_motion": 14.44756432,
        "meta_eccentricity": 0.00899094,
        "meta_inclination": 98.3891,
        "meta_ra_of_asc_node": 35.129,
        "meta_arg_of_pericenter": 127.6871,
        "meta_mean_anomaly": 287.3237,
        "meta_ephemeris_type": 0,
        "meta_classification_type": "U",
        "meta_norad_cat_id": 30696,
        "meta_element_set_no": 999,
        "meta_rev_at_epoch": 98295,
        "meta_bstar": 0.0013745199,
        "meta_mean_motion_dot": 4.971e-05,
        "meta_mean_motion_ddot": 0,
        "tle_line1": "1 30696U 99025ARE 25346.10316542  .00004971  00000+0  13745-2 0  9993",
        "tle_line2": "2 30696  98.3891  35.1290 0089909 127.6871 287.3237 14.44756432982956"
      },
      "geometry": {
        "type": "Point",
        "coordinates": [
          -146.14556002488945,
          -15.811374077174767
        ]
      }
    },
    {
      "type": "Feature",
      "properties": {
        "norad_id": 30697,
        "name": "FENGYUN 1C DEB",
        "group": "fengyun-1c-debris",
        "lat": -81.07459444969405,
        "lon": 137.17824671788608,
        "alt_km": 849.3594842540242,
        "timestamp": "2025-12-13T05:42:57.837485+00:00",
        "meta_object_name": "FENGYUN 1C DEB",
        "meta_object_id": "1999-025ARF",
        "meta_epoch": "2025-12-12T03:06:11.899296",
        "meta_mean_motion": 14.13514025,
        "meta_eccentricity": 0.00880533,
        "meta_inclination": 98.907,
        "meta_ra_of_asc_node": 42.9737,
        "meta_arg_of_pericenter": 186.9353,
        "meta_mean_anomaly": 202.0732,
        "meta_ephemeris_type": 0,
        "meta_classification_type": "U",
        "meta_norad_cat_id": 30697,
        "meta_element_set_no": 999,
        "meta_rev_at_epoch": 96252,
        "meta_bstar": 0.0022424379,
        "meta_mean_motion_dot": 4.338e-05,
        "meta_mean_motion_ddot": 0,
        "tle_line1": "1 30697U 99025ARF 25346.12930439  .00004338  00000+0  22424-2 0  9994",
        "tle_line2": "2 30697  98.9070  42.9737 0088053 186.9353 202.0732 14.13514025962527"
      },
      "geometry": {
        "type": "Point",
        "coordinates": [
          137.17824671788608,
          -81.07459444969405
        ]
      }
    },
    {
      "type": "Feature",
      "properties": {
        "norad_id": 30699,
        "name": "FENGYUN 1C DEB",
        "group": "fengyun-1c-debris",
        "lat": 78.11542023657728,
        "lon": -22.024307338804203,
        "alt_km": 730.89097771256,
        "timestamp": "2025-12-13T05:42:57.837495+00:00",
        "meta_object_name": "FENGYUN 1C DEB",
        "meta_object_id": "1999-025ARH",
        "meta_epoch": "2025-12-12T01:03:13.487904",
        "meta_mean_motion": 14.46919429,
        "meta_eccentricity": 0.00041263,
        "meta_inclination": 99.3102,
        "meta_ra_of_asc_node": 105.4496,
        "meta_arg_of_pericenter": 253.6337,
        "meta_mean_anomaly": 106.4399,
        "meta_ephemeris_type": 0,
        "meta_classification_type": "U",
        "meta_norad_cat_id": 30699,
        "meta_element_set_no": 999,
        "meta_rev_at_epoch": 97603,
        "meta_bstar": 0.0034766014,
        "meta_mean_motion_dot": 0.00012596,
        "meta_mean_motion_ddot": 0,
        "tle_line1": "1 30699U 99025ARH 25346.04390611  .00012596  00000+0  34766-2 0  9996",
        "tle_line2": "2 30699  99.3102 105.4496 0004126 253.6337 106.4399 14.46919429976030"
      },
      "geometry": {
        "type": "Point",
        "coordinates": [
          -22.024307338804203,
          78.11542023657728
        ]
      }
    },
    {
      "type": "Feature",
      "properties": {
        "norad_id": 30700,
        "name": "FENGYUN 1C DEB",
        "group": "fengyun-1c-debris",
        "lat": 30.741425302582453,
        "lon": -159.3331509957073,
        "alt_km": 748.665880292252,
        "timestamp": "2025-12-13T05:42:57.837507+00:00",
        "meta_object_name": "FENGYUN 1C DEB",
        "meta_object_id": "1999-025ARJ",
        "meta_epoch": "2025-12-12T00:21:02.513088",
        "meta_mean_motion": 14.23793075,
        "meta_eccentricity": 0.0087091,
        "meta_inclination": 98.5417,
        "meta_ra_of_asc_node": 14.3502,
        "meta_arg_of_pericenter": 145.3968,
        "meta_mean_anomaly": 215.2921,
        "meta_ephemeris_type": 0,
        "meta_classification_type": "U",
        "meta_norad_cat_id": 30700,
        "meta_element_set_no": 999,
        "meta_rev_at_epoch": 97559,
        "meta_bstar": 0.00026393,
        "meta_mean_motion_dot": 5.86e-06,
        "meta_mean_motion_ddot": 0,
        "tle_line1": "1 30700U 99025ARJ 25346.01461242  .00000586  00000+0  26393-3 0  9999",
        "tle_line2": "2 30700  98.5417  14.3502 0087091 145.3968 215.2921 14.23793075975590"
      },
      "geometry": {
        "type": "Point",
        "coordinates": [
          -159.3331509957073,
          30.741425302582453
        ]
      }
    }
  ]
}